EARTHCARE               
1 59908U 24101A   24224.11580073  .00029837  00000+0  42862-3 0  9991
2 59908  96.9852 350.5819 0002509 249.3299 110.7687 15.56052519 11525
